IRIDIUM 8 [+]           
1 24792U 97020A   17182.88797238  .00000055  00000-0  12665-4 0  9997
2 24792  86.3965 312.5368 0002310  94.2411 265.9048 14.34213127 55077
IRIDIUM 7 [+]           
1 24793U 97020B   17182.88154722  .00000056  00000-0  12761-4 0  9991
2 24793  86.3971 312.8246 0002266  93.2160 266.9295 14.34219906 55079
IRIDIUM 6 [+]           
1 24794U 97020C   17182.87523359  .00000104  00000-0  29936-4 0  9993
2 24794  86.3967 312.7570 0002210  94.6003 265.5445 14.34212947 55063
IRIDIUM 5 [+]           
1 24795U 97020D   17182.86894123  .00000134  00000-0  40884-4 0  9991
2 24795  86.3974 312.7713 0002180  96.8323 263.3121 14.34216394 55344
IRIDIUM 4 [-]           
1 24796U 97020E   17182.87391751  .00000124  00000-0  36665-4 0  9993
2 24796  86.3965 311.6927 0002283  92.1280  64.5947 14.35162237 55372
IRIDIUM 914 [-]         
1 24836U 97030A   17182.86769251  .00000066  00000-0  14831-4 0  9998
2 24836  86.3940 328.4159 0003795  80.0311 280.1315 14.38764326188959
IRIDIUM 12 [+]          
1 24837U 97030B   17182.55000098 -.00000035  00000-0 -19648-4 0  9991
2 24837  86.3948 344.0846 0002166  89.0792 342.0563 14.34212807 49001
IRIDIUM 10 [+]          
1 24839U 97030D   17182.53594147  .00000048  00000-0  10113-4 0  9994
2 24839  86.3954 344.0699 0002261  92.2018 331.9541 14.34215587 49011
IRIDIUM 13 [+]          
1 24840U 97030E   17182.79354362 -.00000053  00000-0 -23916-4 0  9990
2 24840  86.4232 344.1051 0002167  98.7131 261.4313 14.38685918 49048
IRIDIUM 16 [-]          
1 24841U 97030F   17182.54815770  .00000103  00000-0  28169-4 0  9998
2 24841  86.4035 343.9966 0001318 167.5799 192.5431 14.36720240 49641
IRIDIUM 911 [-]         
1 24842U 97030G   17182.79012700  .00000116  00000-0  27516-4 0  9997
2 24842  86.4462 344.6707 0016097  48.9192 311.3397 14.44966439 55062
IRIDIUM 15 [+]          
1 24869U 97034A   17182.56663141 -.00000056  00000-0 -24773-4 0  9993
2 24869  86.4173  16.0638 0001856  74.3284 285.8119 14.38614957 46004
IRIDIUM 17 [-]          
1 24870U 97034B   17182.59588158  .00000105  00000-0  29340-4 0  9990
2 24870  86.3956  14.1378 0003080 124.4047 235.7441 14.35762858 46248
IRIDIUM 920 [-]         
1 24871U 97034C   17182.90109212  .00000108  00000-0  28302-4 0  9996
2 24871  86.3969   0.1584 0009709 296.8526  63.1680 14.39476786 48209
IRIDIUM 18 [+]          
1 24872U 97034D   17182.56030022 -.00000069  00000-0 -29058-4 0  9998
2 24872  86.4199  16.0648 0001683  70.2458 289.8922 14.38615399 45986
IRIDIUM 921 [-]         
1 24873U 97034E   17182.80794865  .00000836  00000-0  47460-4 0  9995
2 24873  86.3926  59.0783 0006549 339.6827  20.4150 15.11369114 90029
IRIDIUM 26 [-]          
1 24903U 97043A   17182.82584963  .00000039  00000-0  66981-5 0  9992
2 24903  86.3973 248.6550 0002105  92.6683  43.6037 14.35260874 39597
IRIDIUM 25 [+]          
1 24904U 97043B   17182.86214266  .00000120  00000-0  35778-4 0  9993
2 24904  86.3964 249.2794 0002209  92.5440 267.6009 14.34215528 39727
IRIDIUM 46 [+]          
1 24905U 97043C   17182.73524977  .00000124  00000-0  37073-4 0  9997
2 24905  86.3987 249.3126 0001839  86.1794 273.9612 14.34217144 39919
IRIDIUM 23 [+]          
1 24906U 97043D   17182.82507366  .00000112  00000-0  32825-4 0  9998
2 24906  86.3977 249.3464 0002274  89.0718  47.1800 14.34219034 39657
IRIDIUM 22 [+]          
1 24907U 97043E   17182.77331388  .00000125  00000-0  37467-4 0  9993
2 24907  86.3974 249.9872 0002308  92.1149 268.0311 14.34219924 39935
DUMMY MASS 1 [-]        
1 24925U 97048A   17182.73599232  .00000068  00000-0  46783-5 0  9996
2 24925  86.3343  36.7086 0007094  10.8031 349.3344 14.85136894 73744
DUMMY MASS 2 [-]        
1 24926U 97048B   17182.70936089  .00000054  00000-0  30571-5 0  9992
2 24926  86.3343  37.8394 0008181  16.2834 343.8651 14.84904920 73346
IRIDIUM 29 [-]          
1 24944U 97051A   17182.82908175  .00000059  00000-0  13806-4 0  9990
2 24944  86.3972 280.7408 0002447  89.8194 270.3282 14.34606986 36319
IRIDIUM 32 [+]          
1 24945U 97051B   17182.87191998  .00000146  00000-0  45039-4 0  9993
2 24945  86.3967 280.9479 0002332  92.0718 268.0744 14.34218005 36526
IRIDIUM 33 [-]          
1 24946U 97051C   17182.84128122  .00000061  00000-0  14829-4 0  9999
2 24946  86.3887 280.5878 0007718 179.3983 180.7223 14.33557381 36123
IRIDIUM 28 [-]          
1 24948U 97051E   17182.83488585  .00000076  00000-0  19374-4 0  9998
2 24948  86.3977 279.9615 0001999  98.3569 261.7854 14.35555416 36614
IRIDIUM 30 [+]          
1 24949U 97051F   17182.86561919 -.00000017  00000-0 -13266-4 0  9996
2 24949  86.3994 281.0814 0001882 105.7289 254.4114 14.34214976 36296
IRIDIUM 31 [+]          
1 24950U 97051G   17182.78947048  .00000019  00000-0 -27761-6 0  9998
2 24950  86.3968 281.0767 0002348  92.9906 267.1558 14.34217076 36586
IRIDIUM 19 [+]          
1 24965U 97056A   17182.42496950  .00000108  00000-0  31639-4 0  9996
2 24965  86.3965 312.7422 0002287  94.2549 265.8908 14.34215638 34594
IRIDIUM 35 [+]          
1 24966U 97056B   17182.85625604  .00000114  00000-0  33746-4 0  9992
2 24966  86.3965 312.5556 0002270  94.0996 266.0459 14.34215649 34357
IRIDIUM 36 [-]          
1 24967U 97056C   17182.83917185  .00000117  00000-0  33670-4 0  9998
2 24967  86.3979 311.6082 0002378  94.6899 265.4569 14.35608518 34968
IRIDIUM 37 [+]          
1 24968U 97056D   17182.90066236  .00000031  00000-0  41172-5 0  9991
2 24968  86.3967 312.7238 0002308  94.8557 265.2902 14.34213783 34433
IRIDIUM 34 [+]          
1 24969U 97056E   17182.78014858  .00000112  00000-0  32866-4 0  9990
2 24969  86.3967 312.7111 0002313  95.1777 264.9683 14.34216139 34630
IRIDIUM 43 [-]          
1 25039U 97069A   17182.85963019  .00058178 -40942-6  35960-3 0  9991
2 25039  86.4043  12.4549 0307461 348.8452  10.6078 15.33183610 28908
IRIDIUM 41 [+]          
1 25040U 97069B   17182.62211397 -.00000061  00000-0 -28931-4 0  9998
2 25040  86.3949  15.9244 0001938  84.3983 275.7434 14.34215425 28084
IRIDIUM 40 [-]          
1 25041U 97069C   17182.46221288  .00024618 -89053-6  23538-3 0  9992
2 25041  86.3890  10.5044 0278798 224.7652 133.0801 15.30505029 29143
IRIDIUM 39 [B]          
1 25042U 97069D   17182.61605865  .00000124  00000-0  29170-4 0  9990
2 25042  86.3913  13.0558 0016769 264.3952  95.5338 14.46163156 28805
IRIDIUM 38 [-]          
1 25043U 97069E   17182.92318380  .00000101  00000-0  27879-4 0  9997
2 25043  86.3955  12.9602 0001368 127.7600 232.3721 14.36035765 28586
IRIDIUM 42 [-]          
1 25077U 97077A   17182.62788010  .00000106  00000-0  30776-4 0  9996
2 25077  86.3959  15.8676 0001826  98.7059 261.4343 14.34513620 24267
IRIDIUM 44 [-]          
1 25078U 97077B   17182.89635903  .00000106  00000-0  28260-4 0  9993
2 25078  86.3956   5.2941 0001749 142.3493 217.7827 14.38130053 25716
IRIDIUM 45 [+]          
1 25104U 97082A   17182.85288687  .00000155  00000-0  48217-4 0  9996
2 25104  86.3965 281.0803 0001428 108.7963 251.3388 14.34218304 22219
IRIDIUM 24 [-]          
1 25105U 97082B   17182.70656574  .00000103  00000-0  26516-4 0  9996
2 25105  86.3926 229.3210 0009572 303.1096  56.9183 14.39860645 24692
IRIDIUM 47 [+]          
1 25106U 97082C   17182.74160325  .00000124  00000-0  37194-4 0  9992
2 25106  86.3961 249.2002 0002267  88.8478 271.2977 14.34219716 22162
IRIDIUM 49 [+]          
1 25108U 97082E   17182.78118809  .00000116  00000-0  34418-4 0  9995
2 25108  86.3963 249.2867 0002263  90.9718  47.9664 14.34219765 22202
IRIDIUM 52 [+]          
1 25169U 98010A   17182.85336966 -.00000037  00000-0 -20125-4 0  9992
2 25169  86.3953 344.2554 0002178  89.5368 270.6077 14.34213399 13601
IRIDIUM 56 [+]          
1 25170U 98010B   17182.84703483 -.00000159  00000-0 -63897-4 0  9993
2 25170  86.3949 344.3637 0001938  89.9374 270.2044 14.34207643 13789
IRIDIUM 54 [+]          
1 25171U 98010C   17182.80903186 -.00000037  00000-0 -20115-4 0  9993
2 25171  86.3953 344.2950 0002184  89.1913 270.9532 14.34211600 14044
IRIDIUM 50 [+]          
1 25172U 98010D   17182.49181701 -.00000034  00000-0 -19145-4 0  9998
2 25172  86.3953 344.3838 0002244  87.7936 272.3517 14.34212846 13813
IRIDIUM 53 [+]          
1 25173U 98010E   17182.51095644 -.00000037  00000-0 -20238-4 0  9990
2 25173  86.3953 344.3821 0002178  89.6826 270.4620 14.34211975 13828
IRIDIUM 51 [S]          
1 25262U 98018A   17182.88166571  .00000165  00000-0  51773-4 0  9993
2 25262  86.3984 312.8850 0002185  80.8937 279.2506 14.34220893 13028
IRIDIUM 61 [+]          
1 25263U 98018B   17182.90700473  .00000107  00000-0  31141-4 0  9995
2 25263  86.3967 312.6866 0002277  93.7295 266.4161 14.34215908  8746
IRIDIUM 55 [+]          
1 25272U 98019A   17182.90997640  .00000137  00000-0  41923-4 0  9992
2 25272  86.3967 280.8402 0002295  92.7320 267.4139 14.34218021  7964
IRIDIUM 57 [-]          
1 25273U 98019B   17182.87631278  .00000016  00000-0 -14328-5 0  9998
2 25273  86.3976 281.1654 0002350  92.1586 267.9879 14.34271374  7953
IRIDIUM 58 [+]          
1 25274U 98019C   17182.89095071  .00000140  00000-0  42911-4 0  9991
2 25274  86.3973 281.3546 0002259  91.1784 268.9670 14.34217738  7965
IRIDIUM 59 [+]          
1 25275U 98019D   17182.82752377  .00000152  00000-0  47068-4 0  9995
2 25275  86.3968 281.2331 0002401  91.5936 268.5534 14.34217776  8242
IRIDIUM 60 [+]          
1 25276U 98019E   17182.83386516  .00000151  00000-0  46982-4 0  9998
2 25276  86.3963 280.8495 0002324  93.5448 266.6014 14.34217494  7954
IRIDIUM 62 [+]          
1 25285U 98021A   17182.58593102  .00000030  00000-0  37120-5 0  9995
2 25285  86.3965 217.8811 0002264  89.1414 271.0042 14.34218827  7081
IRIDIUM 63 [-]          
1 25286U 98021B   17182.81576698  .00000091  00000-0  25036-4 0  9992
2 25286  86.3994 218.1961 0002427  86.4718  31.4224 14.34668381  6861
